C/2019 C1 (ATLAS),e,36.0199,212.3928,319.1892,789.9327,0.0000444,0.99166849,0.0000,05/05.6714/2020,2000,g 10.0,4.0
# From MPC118842
C/2019 D1 (Flewelling),e,34.0899,231.7194,70.5039,140.4176,0.0005923,0.98876076,0.0000,05/11.8763/2019,2000,g 13.0,4.0
# From MPC119997
C/2019 E3 (ATLAS),h,11/12.0766/2023,84.2869,347.2333,280.5978,1.004524,10.315486,2000,2.5,4.0
# From MPEC 2020-N31
C/2019 F1 (ATLAS-Africano),h,06/22.7758/2021,54.1755,38.7262,251.1100,1.003477,3.596009,2000,5.5,4.0
# From MPC119997
C/2019 F2 (ATLAS),e,19.1876,175.8153,11.0712,16.65311,0.0145031,0.86584721,4.9156,08/13.0/2020,2000,g 12.0,4.0
# From MPEC 2020-AA5
A/2019 G2,e,159.2099,208.1496,82.6464,708.4864,0.0000523,0.99676613,0.0000,12/10.0369/2019,2000,g 16.5,2.0
# From MPC118094
A/2019 G4,h,09/15.9210/2018,138.3858,130.4644,287.8843,1.001150,5.858779,2000,13.0,2.0
# From MPC114607
P/2019 GG21 (PANSTARRS),e,6.0837,340.5906,208.4185,7.469367,0.0482812,0.47297740,22.2347,08/13.0/2020,2000,g 12.0,4.0
# From MPC115885
C/2019 H1 (NEOWISE),e,104.5771,269.1886,19.3061,231.3097,0.0002802,0.99202165,0.0000,04/27.7670/2019,2000,g 15.5,4.0
# From MPC118842
C/2019 J1 (Lemmon),e,24.5505,98.0879,167.7822,69.98172,0.0016836,0.96457725,0.8279,08/13.0/2020,2000,g 12.0,4.0
# From MPC115885
C/2019 J2 (Palomar),e,105.1412,25.4735,98.7113,675.4133,0.0000561,0.99744281,0.0000,07/19.7088/2019,2000,g 13.0,4.0
# From MPC117071
C/2019 J3 (ATLAS),h,08/01.9072/2019,131.4135,270.5194,16.5648,1.000064,2.373891,2000,13.5,4.0
# From MPC117071
C/2019 JU6 (ATLAS),e,148.2973,21.7381,94.8843,330.9450,0.0001637,0.99381958,0.0000,05/31.8681/2019,2000,g 14.5,4.0
# From MPC119997
C/2019 K1 (ATLAS),e,87.1479,73.3762,265.7105,50662,0.0000001,0.99996027,0.0000,02/12.9750/2020,2000,g 10.0,4.0
# From MPC119997
C/2019 K4 (Ye),e,105.3028,180.1640,139.7736,1761,0.0000133,0.99871648,0.0000,06/16.3762/2019,2000,g 12.5,4.0
# From MPC119997
C/2019 K5 (Young),e,15.3146,177.1731,174.9458,155.5482,0.0005081,0.98691597,0.0000,06/22.8124/2019,2000,g 13.0,4.0
# From MPEC 2020-N31
C/2019 K6 (PANSTARRS),e,132.3746,42.9406,187.6212,1562,0.0000160,0.99748472,0.0000,05/20.2036/2020,2000,g 11.5,4.0
# From MPEC 2020-N31
C/2019 K7 (Smith),h,06/16.9377/2020,103.5399,307.9272,27.2985,1.000774,4.475035,2000,6.0,4.0
# From MPC119997
C/2019 K8 (ATLAS),e,93.2234,291.0443,85.3687,1964,0.0000113,0.99837315,0.0000,07/21.3236/2019,2000,g 11.5,4.0
# From MPC118095
C/2019 L1 (PANSTARRS),e,9.9932,254.4088,49.9411,9.834404,0.0319582,0.70606545,11.7499,08/13.0/2020,2000,g 13.5,4.0
# From MPC115886
C/2019 L2 (NEOWISE),e,152.1794,12.5863,18.7423,24.87188,0.0079459,0.93487490,3.9661,08/13.0/2020,2000,g 16.0,4.0
# From MPEC 2020-N31
P/2019 LD2 (ATLAS),e,11.5622,179.6901,123.4530,5.287529,0.0810634,0.13418711,10.1358,08/13.0/2020,2000,g  8.5,4.0
# From MPEC 2020-N31
C/2019 L3 (ATLAS),h,01/09.8297/2022,48.3664,290.7841,171.6494,1.000614,3.553798,2000,4.5,4.0
# From MPEC 2020-N31
P/2019 LM4 (Palomar),e,36.3934,72.8593,68.3822,5.717110,0.0721007,0.58510105,30.4095,08/13.0/2020,2000,g  9.5,4.0
# From MPC118095
C/2019 LB7 (Kleyna),e,164.2774,3.6839,336.3851,35.45429,0.0046688,0.92987873,2.3557,08/13.0/2020,2000,g 17.0,4.0
# From MPC118843
P/2019 M2 (ATLAS),e,12.2821,307.5964,332.5527,3.026206,0.1872217,0.64843701,78.1337,08/13.0/2020,2000,g 21.2,4.0
# From MPC118095
C/2019 M3 (ATLAS),h,01/02.9161/2019,99.4486,154.8966,87.9410,1.001708,2.418644,2000,12.2,4.0
# From MPEC 2020-N31
C/2019 N1 (ATLAS),e,82.4264,13.5738,193.4465,17835,0.0000004,0.99990443,0.0000,12/01.8047/2020,2000,g  7.5,4.0
# From MPEC 2020-N31
A/2019 O2,e,93.2862,48.3307,129.6457,57.38646,0.0022672,0.83125559,357.8067,08/13.0/2020,2000,g  9.5,2.0
# From MPEC 2020-N31
C/2019 O3,h,03/07.4096/2021,89.8146,300.3801,60.0186,1.001691,8.819687,2000,10.5,2.0
# From MPEC 2020-N31
A/2019 O4,e,115.0856,354.9199,61.8194,32.85383,0.0052339,0.88906707,0.9683,08/13.0/2020,2000,g 15.5,2.0
# From MPEC 2020-AA5
A/2019 Q1,h,07/19.8583/2020,155.7198,42.3358,55.9396,1.000359,4.996676,2000,12.5,2.0
# From MPC117072
A/2019 Q2,e,159.0207,188.0375,176.2998,57.63952,0.0022523,0.97819558,0.0000,07/22.3528/2019,2000,g 18.0,2.0
# From MPC117072
C/2019 Q3 (PANSTARRS),h,08/21.1966/2018,65.5280,151.3242,152.6629,1.004423,7.252029,2000,8.5,4.0
# From MPC117072
P/2019 S2 (PANSTARRS),e,10.4732,93.1271,216.8035,4.735342,0.0956483,0.20682152,51.5326,08/13.0/2020,2000,g 13.5,4.0
# From MPC118096
P/2019 S3 (PANSTARRS),e,8.6931,150.1623,212.9723,3.414378,0.1562200,0.47084508,55.1217,08/13.0/2020,2000,g 18.3,4.0
# From MPEC 2020-N31
C/2019 S4 (Lemmon),e,92.0249,63.1668,71.3574,238.2409,0.0002680,0.98555348,0.0000,04/07.9478/2020,2000,g 11.0,4.0
# From MPEC 2020-N31
A/2019 T1,e,120.8690,6.9505,91.0116,38.25102,0.0041662,0.88806248,359.3578,08/13.0/2020,2000,g 13.0,2.0
# From MPEC 2020-N31
C/2019 T2 (Lemmon),e,111.4706,155.6371,239.3866,2349,0.0000087,0.99887338,0.0000,04/22.2950/2021,2000,g  9.0,4.0
# From MPEC 2020-N31
C/2019 T3 (ATLAS),e,121.8627,139.5187,112.2592,4911,0.0000029,0.99878910,0.0000,03/02.5223/2021,2000,g  6.8,4.0
# From MPC119998
C/2019 T4 (ATLAS),e,53.6168,199.9662,351.2151,1010,0.0000307,0.99580199,0.0000,06/09.3768/2022,2000,g  5.0,4.0
# From MPC119998
P/2019 T5 (ATLAS),e,33.4238,247.6922,189.6043,8.011281,0.0434661,0.80919999,16.4249,08/13.0/2020,2000,g 15.0,4.0
# From MPC119998
P/2019 T6 (PANSTARRS),e,18.6957,71.3084,328.9056,5.433621,0.0778162,0.62239849,21.7293,08/13.0/2020,2000,g 15.5,4.0
# From MPC118096
P/2019 U4 (PANSTARRS),e,11.6908,200.0292,180.9616,3.520327,0.1492208,0.47537323,49.1877,08/13.0/2020,2000,g 19.0,4.0
# From MPEC 2020-N31
A/2019 U5,h,03/30.4283/2023,113.5183,2.6634,181.5944,1.000142,3.621984,2000,10.0,2.0
# From MPEC 2020-K19
C/2019 U6 (Lemmon),e,61.0010,235.7055,329.6608,435.6246,0.0001084,0.99790127,0.0000,06/18.8227/2020,2000,g 10.0,4.0
# From MPC119998
C/2019 V1 (Borisov),e,61.8631,83.2049,51.1955,2224,0.0000094,0.99860725,0.0000,07/16.5578/2020,2000,g 11.0,4.0
# From MPC119998
P/2019 V2 (Groeller),e,11.8038,189.1642,336.3603,7.515369,0.0478386,0.33249368,356.6058,08/13.0/2020,2000,g 10.0,4.0
# From MPC119998
P/2019 W1 (PANSTARRS),e,23.4600,35.4116,18.7152,4.550388,0.1015387,0.26616474,47.0335,08/13.0/2020,2000,g 12.9,4.0
# From MPC119998
P/2019 X1 (Pruyne),e,10.2446,43.7105,36.6118,6.177323,0.0641954,0.30340767,25.0446,08/13.0/2020,2000,g 10.4,4.0
# From MPEC 2020-N31
C/2019 Y1 (ATLAS),e,73.3496,31.3655,57.4966,231.7014,0.0002795,0.99638406,0.0000,03/15.5600/2020,2000,g 13.7,4.0
# From MPEC 2020-N31
P/2019 Y2 (Fuls),e,4.8962,80.8370,92.3469,3.454396,0.1535133,0.38485365,29.8060,08/13.0/2020,2000,g 13.2,4.0
# From MPEC 2020-L06
C/2019 Y4 (ATLAS),e,45.3833,120.5714,177.3012,484.8500,0.0000923,0.99947842,0.0000,05/31.0534/2020,2000,g 11.8,6.0
# From MPEC 2020-L06
C/2019 Y4-A (ATLAS),h,05/31.0420/2020,45.8250,120.9277,177.2466,1.001334,0.251016,2000,11.6,6.0
# From MPEC 2020-L06
C/2019 Y4-B (ATLAS),e,45.4596,120.6235,177.3799,1048,0.0000291,0.99975893,0.0000,05/31.0208/2020,2000,g 12.8,6.0
# From MPEC 2020-L06
C/2019 Y4-C (ATLAS),h,05/31.0003/2020,45.6073,120.6534,177.2800,1.002051,0.252065,2000,12.7,6.0
# From MPEC 2020-L06
C/2019 Y4-D (ATLAS),e,45.6486,121.0341,177.4188,67.10026,0.0017932,0.99625240,0.0000,05/31.1174/2020,2000,g 12.5,6.0
# From MPEC 2020-N31
A/2020 A1,e,149.0354,119.2923,302.6132,24.66343,0.0080468,0.93229212,2.0472,08/13.0/2020,2000,g 18.0,2.0
# From MPEC 2020-L06
C/2020 A2 (Iwamoto),e,120.7502,286.3791,68.2133,1202,0.0000237,0.99918605,0.0000,01/08.3311/2020,2000,g 13.5,4.0
# From MPEC 2020-L06
C/2020 A3 (ATLAS),h,07/29.5824/2019,146.7770,120.3769,271.1635,1.024706,5.839470,2000,8.0,4.0
# From MPEC 2020-L06
C/2020 B3 (Rankin),e,20.7043,185.8256,325.0842,1651,0.0000147,0.99797389,0.0000,10/19.8373/2019,2000,g 13.0,4.0
# From MPEC 2020-N31
C/2020 F2 (ATLAS),h,07/16.7245/2022,163.5742,250.2498,48.3716,1.002161,8.817141,2000,4.5,4.0
# From MPEC 2020-N31
C/2020 F3 (NEOWISE),e,128.9370,61.0114,37.2746,364.5067,0.0001416,0.99919149,0.0000,07/03.6813/2020,2000,g  7.5,5.2
# From MPEC 2020-N31
C/2020 F5 (MASTER),h,03/24.1559/2021,51.7024,350.6419,311.0402,1.002625,4.326401,2000,6.5,3.2
# From MPEC 2020-N31
C/2020 F6 (PANSTARRS),e,174.5817,207.8798,344.5982,394.4129,0.0001258,0.99109783,0.0000,04/11.6023/2020,2000,g 14.5,2.8
# From MPEC 2020-L06
A/2020 F7,e,93.9499,321.8860,227.9934,791.5942,0.0000443,0.99326494,0.0000,11/14.1432/2021,2000,g 12.0,2.0
# From MPEC 2020-N31
C/2020 F8 (SWAN),h,05/27.5417/2020,110.7934,260.0381,68.1897,1.000257,0.430294,2000,10.0,4.0
# From MPEC 2020-N31
P/2020 G1 (Pimentel),e,18.4749,240.0993,207.6499,3.606730,0.1438910,0.85975747,21.3809,08/13.0/2020,2000,g 17.0,4.0
# From MPEC 2020-N31
C/2020 H2 (Pruyne),e,125.0443,277.6349,26.6938,185.1171,0.0003913,0.99549670,0.0000,04/27.5903/2020,2000,g 14.0,3.2
# From MPEC 2020-N31
C/2020 H3 (Wierzchos),h,06/03.5613/2020,62.3667,270.5677,29.6065,1.001928,2.304341,2000,13.0,4.0
# From MPEC 2020-N31
C/2020 H4 (Leonard),e,84.3196,307.7690,116.7657,143.6303,0.0005726,0.99346665,0.0000,08/29.2460/2020,2000,g 15.0,3.2
# From MPEC 2020-N31
C/2020 H5 (Robinson),e,70.2106,210.6397,326.1801,2839,0.0000065,0.99670692,0.0000,12/07.5631/2020,2000,g  5.0,4.0
# From MPEC 2020-N31
C/2020 H6 (ATLAS),h,10/01.0075/2021,79.9508,213.7083,20.3375,1.000820,4.703116,2000,8.0,3.2
# From MPEC 2020-N31
C/2020 H7 (Lemmon),e,135.9228,323.5281,82.7774,7690,0.0000015,0.99942520,0.0000,06/03.5668/2020,2000,g 11.0,4.0
# From MPEC 2020-N31
C/2020 H8 (PANSTARRS),e,99.6417,68.4132,128.8795,566.9667,0.0000730,0.99175569,0.0000,06/04.0668/2020,2000,g 10.5,4.0
# From MPEC 2020-N31
A/2020 H9,e,137.8563,213.1216,312.8321,370.0527,0.0001385,0.99303305,0.0000,12/21.1573/2019,2000,g 18.0,2.0
# From MPEC 2020-N31
C/2020 J1 (SONEAR),e,142.3015,226.5661,341.7198,12060,0.0000007,0.99972176,0.0000,04/18.5537/2021,2000,g  8.5,3.2
# From MPEC 2020-N31
C/2020 K1 (PANSTARRS),e,89.6476,94.3854,213.9428,3576,0.0000046,0.99913942,0.0000,05/09.5628/2023,2000,g  5.5,4.0
# From MPEC 2020-N31
